NORAD_CAT_ID,OBJECT_NAME,OBJECT_TYPE,EPOCH,MEAN_MOTION,ECCENTRICITY,INCLINATION,RA_OF_ASC_NODE,ARG_OF_PERICENTER,MEAN_ANOMALY,BSTAR,MEAN_MOTION_DOT,MEAN_MOTION_DDOT,TLE_LINE0,TLE_LINE1,TLE_LINE2,SEMIMAJOR_AXIS,PERIOD,APOGEE,PERIGEE,DECAYED
52579.0,STARLINK-3893,PAYLOAD,2023-03-20 09:05:39,15.08836062,0.0001584,53.2159,326.2721,94.7196,265.3977,0.0002295,3.366e-05,0.0,0 STARLINK-3893,1 52579U 22051AV  23079.37893416  .00003366  00000-0  22950-3 0  9999,2 52579  53.2159 326.2721 0001584  94.7196 265.3977 15.08836062 47607,6917.892,95.438,540.853,538.662,0.0
52579.0,STARLINK-3893,PAYLOAD,2023-03-21 02:34:54,15.08860983,0.0001624,53.2166,323.0035,114.3471,245.7691,0.0016736,0.00026463,0.0,0 STARLINK-3893,1 52579U 22051AV  23080.10757354  .00026463  00000-0  16736-2 0  9999,2 52579  53.2166 323.0035 0001624 114.3471 245.7691 15.08860983 47714,6917.816,95.436,540.805,538.558,0.0
52579.0,STARLINK-3893,PAYLOAD,2023-03-21 21:39:31,15.08851519,0.0001567,53.2153,319.4352,136.1582,223.9535,0.0012143,0.00019097,0.0,0 STARLINK-3893,1 52579U 22051AV  23080.90245282  .00019097  00000-0  12143-2 0  9992,2 52579  53.2153 319.4352 0001567 136.1582 223.9535 15.08851519 47835,6917.845,95.437,540.794,538.626,0.0
52579.0,STARLINK-3893,PAYLOAD,2023-03-22 19:54:55,15.08854925,0.0002493,53.215,315.2719,143.1356,216.9808,0.0014008,0.00022086,0.0,0 STARLINK-3893,1 52579U 22051AV  23081.82981176  .00022086  00000-0  14008-2 0  9997,2 52579  53.2150 315.2719 0002493 143.1356 216.9808 15.08854925 47973,6917.835,95.437,541.424,537.975,0.0
52579.0,STARLINK-3893,PAYLOAD,2023-03-22 21:30:18,15.0885263,0.0002248,53.2142,314.9738,153.2079,206.903,0.0012094,0.00019019,0.0,0 STARLINK-3893,1 52579U 22051AV  23081.89605142  .00019019  00000-0  12094-2 0  9995,2 52579  53.2142 314.9738 0002248 153.2079 206.9030 15.08852630 47914,6917.842,95.437,541.262,538.152,0.0
52579.0,STARLINK-3893,PAYLOAD,2023-03-23 21:21:06,15.08838057,0.0001159,53.2144,310.5088,101.1896,258.9227,0.00041469,6.318e-05,0.0,0 STARLINK-3893,1 52579U 22051AV  23082.88966214  .00006318  00000-0  41469-3 0  9992,2 52579  53.2144 310.5088 0001159 101.1896 258.9227 15.08838057 48132,6917.886,95.438,540.553,538.95,0.0
52579.0,STARLINK-3893,PAYLOAD,2023-03-24 00:31:53,15.08850597,0.000119,53.2136,309.9179,76.9089,283.2036,0.00082284,0.00012836,0.0,0 STARLINK-3893,1 52579U 22051AV  23083.02214192  .00012836  00000-0  82284-3 0  9992,2 52579  53.2136 309.9179 0001190  76.9089 283.2036 15.08850597 48158,6917.848,95.437,540.536,538.89,0.0
52579.0,STARLINK-3893,PAYLOAD,2023-03-24 21:11:52,15.08872639,0.0001296,53.2133,306.0513,64.1033,296.0093,0.00081975,0.00012794,0.0,0 STARLINK-3893,1 52579U 22051AV  23083.88324944  .00012794  00000-0  81975-3 0  9992,2 52579  53.2133 306.0513 0001296  64.1033 296.0093 15.08872639 48213,6917.781,95.435,540.542,538.749,0.0
52579.0,STARLINK-3893,PAYLOAD,2023-03-25 01:58:01,15.08880303,0.0001317,53.2144,305.1596,74.5229,285.5909,0.0008014,0.00012503,0.0,0 STARLINK-3893,1 52579U 22051AV  23084.08196326  .00012503  00000-0  80140-3 0  9997,2 52579  53.2144 305.1596 0001317  74.5229 285.5909 15.08880303 48319,6917.757,95.435,540.533,538.711,0.0
52579.0,STARLINK-3893,PAYLOAD,2023-03-25 21:02:40,15.08817339,0.0001233,53.2131,301.5908,87.3172,272.7961,-0.00033794,-5.659e-05,0.0,0 STARLINK-3893,1 52579U 22051AV  23084.87686209 -.00005659  00000-0 -33794-3 0  9997,2 52579  53.2131 301.5908 0001233  87.3172 272.7961 15.08817339 48436,6917.95,95.439,540.668,538.962,0.0
52579.0,STARLINK-3893,PAYLOAD,2023-03-26 19:18:05,15.08836237,0.0001192,53.2149,297.4291,94.332,265.7808,0.00096518,0.00015105,0.0,0 STARLINK-3893,1 52579U 22051AV  23085.80423436  .00015105  00000-0  96518-3 0  9990,2 52579  53.2149 297.4291 0001192  94.3320 265.7808 15.08836237 48575,6917.892,95.438,540.582,538.932,0.0
52579.0,STARLINK-3893,PAYLOAD,2023-03-27 00:04:15,15.08851325,0.0001122,53.2146,296.5354,94.9663,265.1457,0.0012948,0.00020385,0.0,0 STARLINK-3893,1 52579U 22051AV  23086.00295223  .00020385  00000-0  12948-2 0  9994,2 52579  53.2146 296.5354 0001122  94.9663 265.1457 15.08851325 48604,6917.846,95.437,540.487,538.935,0.0
52579.0,STARLINK-3893,PAYLOAD,2023-03-27 20:44:15,15.08855538,0.0001315,53.2154,292.6701,92.2107,267.9036,0.0004521,6.918e-05,0.0,0 STARLINK-3893,1 52579U 22051AV  23086.86406721  .00006918  00000-0  45210-3 0  9990,2 52579  53.2154 292.6701 0001315  92.2107 267.9036 15.08855538 48731,6917.833,95.437,540.608,538.788,0.0
52579.0,STARLINK-3893,PAYLOAD,2023-03-28 06:16:34,15.08838476,0.0002239,53.2146,290.8838,94.4385,265.6863,-6.87e-05,-1.382e-05,0.0,0 STARLINK-3893,1 52579U 22051AV  23087.26151143 -.00001382  00000-0 -68700-4 0  9992,2 52579  53.2146 290.8838 0002239  94.4385 265.6863 15.08838476 48792,6917.885,95.438,541.299,538.201,0.0
52579.0,STARLINK-3893,PAYLOAD,2023-03-28 15:48:52,15.08843087,9.79e-05,53.2161,289.1006,120.4847,239.6242,-4.3083e-05,-9.73e-06,0.0,0 STARLINK-3893,1 52579U 22051AV  23087.65894384 -.00000973  00000-0 -43083-4 0  9998,2 52579  53.2161 289.1006 0000979 120.4847 239.6242 15.08843087 48852,6917.871,95.437,540.413,539.059,0.0
52579.0,STARLINK-3893,PAYLOAD,2023-03-28 20:35:01,15.08858474,0.0001191,53.2154,288.2091,106.6104,253.5019,0.00044219,6.76e-05,0.0,0 STARLINK-3893,1 52579U 22051AV  23087.85766031  .00006760  00000-0  44219-3 0  9996,2 52579  53.2154 288.2091 0001191 106.6104 253.5019 15.08858474 48816,6917.824,95.436,540.513,538.865,0.0
52579.0,STARLINK-3893,PAYLOAD,2023-03-28 23:45:47,15.08864571,0.0001237,53.2155,287.614,106.5037,253.6092,0.00062653,9.704e-05,0.0,0 STARLINK-3893,1 52579U 22051AV  23087.99013797  .00009704  00000-0  62653-3 0  9998,2 52579  53.2155 287.6140 0001237 106.5037 253.6092 15.08864571 48907,6917.805,95.436,540.526,538.815,0.0
52579.0,STARLINK-3893,PAYLOAD,2023-03-29 06:07:20,15.08842361,0.0001568,53.2158,286.4245,95.2303,264.8868,9.7582e-05,1.265e-05,0.0,0 STARLINK-3893,1 52579U 22051AV  23088.25510268  .00001265  00000-0  97582-4 0  9997,2 52579  53.2158 286.4245 0001568  95.2303 264.8868 15.08842361 48942,6917.873,95.437,540.823,538.653,0.0
52579.0,STARLINK-3893,PAYLOAD,2023-03-29 22:01:12,15.08843115,0.000139,53.2153,283.4534,89.7388,270.3764,0.00010939,1.454e-05,0.0,0 STARLINK-3893,1 52579U 22051AV  23088.91750413  .00001454  00000-0  10939-3 0  9998,2 52579  53.2153 283.4534 0001390  89.7388 270.3764 15.08843115 48977,6917.871,95.437,540.697,538.774,0.0
52579.0,STARLINK-3893,PAYLOAD,2023-03-30 05:58:08,15.08839664,0.0001408,53.2147,281.9643,86.3091,273.8062,0.00011408,1.528e-05,0.0,0 STARLINK-3893,1 52579U 22051AV  23089.24870587  .00001528  00000-0  11408-3 0  9994,2 52579  53.2147 281.9643 0001408  86.3091 273.8062 15.08839664 49095,6917.881,95.438,540.72,538.772,0.0
52579.0,STARLINK-3893,PAYLOAD,2023-03-30 18:41:13,15.08848215,0.0001327,53.2144,279.5855,81.4408,278.6734,0.00031507,4.731e-05,0.0,0 STARLINK-3893,1 52579U 22051AV  23089.77862341  .00004731  00000-0  31507-3 0  9992,2 52579  53.2144 279.5855 0001327  81.4408 278.6734 15.08848215 49101,6917.855,95.437,540.638,538.802,0.0
52579.0,STARLINK-3893,PAYLOAD,2023-03-31 15:21:13,15.08843097,0.0001283,53.2142,275.7213,83.9186,276.1952,0.00018172,2.606e-05,0.0,0 STARLINK-3893,1 52579U 22051AV  23090.63974383  .00002606  00000-0  18172-3 0  9991,2 52579  53.2142 275.7213 0001283  83.9186 276.1952 15.08843097 49306,6917.871,95.437,540.623,538.848,0.0
52579.0,STARLINK-3893,PAYLOAD,2023-03-31 21:42:46,15.08854925,0.0001202,53.2136,274.5303,87.4255,272.6874,0.00058299,9.006e-05,0.0,0 STARLINK-3893,1 52579U 22051AV  23090.90470077  .00009006  00000-0  58299-3 0  9997,2 52579  53.2136 274.5303 0001202  87.4255 272.6874 15.08854925 49343,6917.835,95.437,540.531,538.868,0.0
52579.0,STARLINK-3893,PAYLOAD,2023-04-01 15:12:01,15.08839656,0.0001921,53.2138,271.2604,107.596,252.5242,0.00051258,7.879e-05,0.0,0 STARLINK-3893,1 52579U 22051AV  23091.63334812  .00007879  00000-0  51258-3 0  9998,2 52579  53.2138 271.2604 0001921 107.5960 252.5242 15.08839656 49450,6917.881,95.438,541.075,538.418,0.0
52579.0,STARLINK-3893,PAYLOAD,2023-04-01 21:33:33,15.08843782,0.0001097,53.2136,270.0699,89.0863,271.0255,0.00082843,0.00012922,0.0,0 STARLINK-3893,1 52579U 22051AV  23091.89830960  .00012922  00000-0  82843-3 0  9990,2 52579  53.2136 270.0699 0001097  89.0863 271.0255 15.08843782 49421,6917.869,95.437,540.493,538.975,0.0
52579.0,STARLINK-3893,PAYLOAD,2023-04-02 11:52:02,15.08845457,0.0001168,53.2135,267.3931,90.979,269.1336,0.00070463,0.00010946,0.0,0 STARLINK-3893,1 52579U 22051AV  23092.49447116  .00010946  00000-0  70463-3 0  9993,2 52579  53.2135 267.3931 0001168  90.9790 269.1336 15.08845457 49516,6917.864,95.437,540.537,538.921,0.0
52579.0,STARLINK-3893,PAYLOAD,2023-04-02 15:02:48,15.08849086,0.0001336,53.2139,266.7996,93.4153,266.6992,0.00071219,0.00011068,0.0,0 STARLINK-3893,1 52579U 22051AV  23092.62695017  .00011068  00000-0  71219-3 0  9999,2 52579  53.2139 266.7996 0001336  93.4153 266.6992 15.08849086 49604,6917.853,95.437,540.642,538.793,0.0
52579.0,STARLINK-3893,PAYLOAD,2023-04-02 16:38:11,15.08851138,0.0001354,53.2142,266.5023,93.6508,266.4639,0.00072645,0.00011296,0.0,0 STARLINK-3893,1 52579U 22051AV  23092.69318944  .00011296  00000-0  72645-3 0  9994,2 52579  53.2142 266.5023 0001354  93.6508 266.4639 15.08851138 49543,6917.846,95.437,540.648,538.775,0.0
52579.0,STARLINK-3893,PAYLOAD,2023-04-03 11:42:49,15.08846034,0.0001438,53.2153,262.9355,96.1978,263.9178,0.00018407,2.643e-05,0.0,0 STARLINK-3893,1 52579U 22051AV  23093.48806804  .00002643  00000-0  18407-3 0  9991,2 52579  53.2153 262.9355 0001438  96.1978 263.9178 15.08846034 49735,6917.862,95.437,540.722,538.732,0.0
52579.0,STARLINK-3893,PAYLOAD,2023-04-03 18:04:21,15.08842602,0.0001498,53.2161,261.7452,104.9646,255.1512,7.9586e-05,9.79e-06,0.0,0 STARLINK-3893,1 52579U 22051AV  23093.75302803  .00000979  00000-0  79586-4 0  9997,2 52579  53.2161 261.7452 0001498 104.9646 255.1512 15.08842602 49704,6917.872,95.437,540.774,538.701,0.0
